CCSDS_OMM_VERS = 2.0
CREATION_DATE  = 
ORIGINATOR     = 

OBJECT_NAME    = DEAR-5
OBJECT_ID      = 2025-296B
CENTER_NAME    = EARTH
REF_FRAME      = TEME
TIME_SYSTEM    = UTC
MEAN_ELEMENT_THEORY = SGP/SGP4

EPOCH          = 2026-01-05T14:25:51.521664
MEAN_MOTION    = 15.17077641
ECCENTRICITY   = .00200306
INCLINATION    = 41.3576
RA_OF_ASC_NODE = 325.4548
ARG_OF_PERICENTER = 187.6336
MEAN_ANOMALY   = 172.4183

EPHEMERIS_TYPE = 0
CLASSIFICATION_TYPE = U
NORAD_CAT_ID   = 67070
ELEMENT_SET_NO = 999
REV_AT_EPOCH   = 357
BSTAR          = .25518106E-3
MEAN_MOTION_DOT = .4974E-4
MEAN_MOTION_DDOT = 0

CCSDS_OMM_VERS = 2.0
CREATION_DATE  = 
ORIGINATOR     = 

OBJECT_NAME    = RAISE-4
OBJECT_ID      = 2025-297B
CENTER_NAME    = EARTH
REF_FRAME      = TEME
TIME_SYSTEM    = UTC
MEAN_ELEMENT_THEORY = SGP/SGP4

EPOCH          = 2026-01-05T15:57:51.069888
MEAN_MOTION    = 15.07411148
ECCENTRICITY   = .00115084
INCLINATION    = 97.4870
RA_OF_ASC_NODE = 157.5727
ARG_OF_PERICENTER = 230.3504
MEAN_ANOMALY   = 129.6709

EPHEMERIS_TYPE = 0
CLASSIFICATION_TYPE = U
NORAD_CAT_ID   = 67073
ELEMENT_SET_NO = 999
REV_AT_EPOCH   = 339
BSTAR          = .45507237E-3
MEAN_MOTION_DOT = .6841E-4
MEAN_MOTION_DDOT = 0

CCSDS_OMM_VERS = 2.0
CREATION_DATE  = 
ORIGINATOR     = 

OBJECT_NAME    = ELECTRON KICK STAGE R/B
OBJECT_ID      = 2025-297C
CENTER_NAME    = EARTH
REF_FRAME      = TEME
TIME_SYSTEM    = UTC
MEAN_ELEMENT_THEORY = SGP/SGP4

EPOCH          = 2026-01-05T15:56:37.932288
MEAN_MOTION    = 15.70655076
ECCENTRICITY   = .01560987
INCLINATION    = 97.4779
RA_OF_ASC_NODE = 159.4361
ARG_OF_PERICENTER = 182.3339
MEAN_ANOMALY   = 177.7214

EPHEMERIS_TYPE = 0
CLASSIFICATION_TYPE = U
NORAD_CAT_ID   = 67074
ELEMENT_SET_NO = 999
REV_AT_EPOCH   = 351
BSTAR          = .21151753E-2
MEAN_MOTION_DOT = .543851E-2
MEAN_MOTION_DDOT = .93114903E-4

CCSDS_OMM_VERS = 2.0
CREATION_DATE  = 
ORIGINATOR     = 

OBJECT_NAME    = STARLINK-36230
OBJECT_ID      = 2025-298A
CENTER_NAME    = EARTH
REF_FRAME      = TEME
TIME_SYSTEM    = UTC
MEAN_ELEMENT_THEORY = SGP/SGP4

EPOCH          = 2026-01-05T14:20:53.578176
MEAN_MOTION    = 15.52585733
ECCENTRICITY   = .00037188
INCLINATION    = 69.9996
RA_OF_ASC_NODE = 182.8843
ARG_OF_PERICENTER = 276.3906
MEAN_ANOMALY   = 83.6857

EPHEMERIS_TYPE = 0
CLASSIFICATION_TYPE = U
NORAD_CAT_ID   = 67075
ELEMENT_SET_NO = 999
REV_AT_EPOCH   = 353
BSTAR          = .14431991E-2
MEAN_MOTION_DOT = .89849E-3
MEAN_MOTION_DDOT = 0

CCSDS_OMM_VERS = 2.0
CREATION_DATE  = 
ORIGINATOR     = 

OBJECT_NAME    = STARLINK-36240
OBJECT_ID      = 2025-298B
CENTER_NAME    = EARTH
REF_FRAME      = TEME
TIME_SYSTEM    = UTC
MEAN_ELEMENT_THEORY = SGP/SGP4

EPOCH          = 2026-01-05T00:00:00.999648
MEAN_MOTION    = 15.52561389
ECCENTRICITY   = .000338
INCLINATION    = 69.9992
RA_OF_ASC_NODE = 184.5191
ARG_OF_PERICENTER = 273.5072
MEAN_ANOMALY   = 348.1226

EPHEMERIS_TYPE = 0
CLASSIFICATION_TYPE = U
NORAD_CAT_ID   = 67076
ELEMENT_SET_NO = 999
REV_AT_EPOCH   = 471
BSTAR          = -.14109667E-2
MEAN_MOTION_DOT = -.86171E-3
MEAN_MOTION_DDOT = 0

CCSDS_OMM_VERS = 2.0
CREATION_DATE  = 
ORIGINATOR     = 

OBJECT_NAME    = STARLINK-36243
OBJECT_ID      = 2025-298C
CENTER_NAME    = EARTH
REF_FRAME      = TEME
TIME_SYSTEM    = UTC
MEAN_ELEMENT_THEORY = SGP/SGP4

EPOCH          = 2026-01-05T14:19:54.354432
MEAN_MOTION    = 15.52599467
ECCENTRICITY   = .00034453
INCLINATION    = 69.9996
RA_OF_ASC_NODE = 182.8811
ARG_OF_PERICENTER = 278.3136
MEAN_ANOMALY   = 81.7660

EPHEMERIS_TYPE = 0
CLASSIFICATION_TYPE = U
NORAD_CAT_ID   = 67077
ELEMENT_SET_NO = 999
REV_AT_EPOCH   = 353
BSTAR          = .23804009E-2
MEAN_MOTION_DOT = .149496E-2
MEAN_MOTION_DDOT = 0

CCSDS_OMM_VERS = 2.0
CREATION_DATE  = 
ORIGINATOR     = 

OBJECT_NAME    = STARLINK-36236
OBJECT_ID      = 2025-298D
CENTER_NAME    = EARTH
REF_FRAME      = TEME
TIME_SYSTEM    = UTC
MEAN_ELEMENT_THEORY = SGP/SGP4

EPOCH          = 2026-01-05T14:19:25.255776
MEAN_MOTION    = 15.52570500
ECCENTRICITY   = .00035511
INCLINATION    = 69.9997
RA_OF_ASC_NODE = 182.8800
ARG_OF_PERICENTER = 274.6422
MEAN_ANOMALY   = 85.4359

EPHEMERIS_TYPE = 0
CLASSIFICATION_TYPE = U
NORAD_CAT_ID   = 67078
ELEMENT_SET_NO = 999
REV_AT_EPOCH   = 353
BSTAR          = .11039746E-2
MEAN_MOTION_DOT = .68466E-3
MEAN_MOTION_DDOT = 0

CCSDS_OMM_VERS = 2.0
CREATION_DATE  = 
ORIGINATOR     = 

OBJECT_NAME    = STARLINK-36159
OBJECT_ID      = 2025-298E
CENTER_NAME    = EARTH
REF_FRAME      = TEME
TIME_SYSTEM    = UTC
MEAN_ELEMENT_THEORY = SGP/SGP4

EPOCH          = 2026-01-05T14:00:03.000384
MEAN_MOTION    = 15.42698223
ECCENTRICITY   = .00033742
INCLINATION    = 70.0001
RA_OF_ASC_NODE = 183.1349
ARG_OF_PERICENTER = 267.8082
MEAN_ANOMALY   = 186.7052

EPHEMERIS_TYPE = 0
CLASSIFICATION_TYPE = U
NORAD_CAT_ID   = 67079
ELEMENT_SET_NO = 999
REV_AT_EPOCH   = 480
BSTAR          = .34460712E-3
MEAN_MOTION_DOT = .14965E-3
MEAN_MOTION_DDOT = 0

CCSDS_OMM_VERS = 2.0
CREATION_DATE  = 
ORIGINATOR     = 

OBJECT_NAME    = STARLINK-36158
OBJECT_ID      = 2025-298F
CENTER_NAME    = EARTH
REF_FRAME      = TEME
TIME_SYSTEM    = UTC
MEAN_ELEMENT_THEORY = SGP/SGP4

EPOCH          = 2026-01-05T14:00:03.000384
MEAN_MOTION    = 15.49154333
ECCENTRICITY   = .00034336
INCLINATION    = 69.9997
RA_OF_ASC_NODE = 182.9163
ARG_OF_PERICENTER = 269.9023
MEAN_ANOMALY   = 14.2755

EPHEMERIS_TYPE = 0
CLASSIFICATION_TYPE = U
NORAD_CAT_ID   = 67080
ELEMENT_SET_NO = 999
REV_AT_EPOCH   = 474
BSTAR          = -.43224572E-1
MEAN_MOTION_DOT = -.2097629E-1
MEAN_MOTION_DDOT = 0

CCSDS_OMM_VERS = 2.0
CREATION_DATE  = 
ORIGINATOR     = 

OBJECT_NAME    = STARLINK-35864
OBJECT_ID      = 2025-298G
CENTER_NAME    = EARTH
REF_FRAME      = TEME
TIME_SYSTEM    = UTC
MEAN_ELEMENT_THEORY = SGP/SGP4

EPOCH          = 2026-01-05T14:00:03.000384
MEAN_MOTION    = 15.45955257
ECCENTRICITY   = .00033073
INCLINATION    = 69.9999
RA_OF_ASC_NODE = 182.9292
ARG_OF_PERICENTER = 263.6298
MEAN_ANOMALY   = 9.7621

EPHEMERIS_TYPE = 0
CLASSIFICATION_TYPE = U
NORAD_CAT_ID   = 67081
ELEMENT_SET_NO = 999
REV_AT_EPOCH   = 480
BSTAR          = -.47422833E-1
MEAN_MOTION_DOT = -.2062061E-1
MEAN_MOTION_DDOT = 0

CCSDS_OMM_VERS = 2.0
CREATION_DATE  = 
ORIGINATOR     = 

OBJECT_NAME    = STARLINK-36035
OBJECT_ID      = 2025-298H
CENTER_NAME    = EARTH
REF_FRAME      = TEME
TIME_SYSTEM    = UTC
MEAN_ELEMENT_THEORY = SGP/SGP4

EPOCH          = 2026-01-05T14:00:03.000384
MEAN_MOTION    = 15.42660942
ECCENTRICITY   = .00027903
INCLINATION    = 70.0002
RA_OF_ASC_NODE = 182.9504
ARG_OF_PERICENTER = 272.0308
MEAN_ANOMALY   = 343.4891

EPHEMERIS_TYPE = 0
CLASSIFICATION_TYPE = U
NORAD_CAT_ID   = 67082
ELEMENT_SET_NO = 999
REV_AT_EPOCH   = 480
BSTAR          = .90510723E-3
MEAN_MOTION_DOT = .39622E-3
MEAN_MOTION_DDOT = 0

CCSDS_OMM_VERS = 2.0
CREATION_DATE  = 
ORIGINATOR     = 

OBJECT_NAME    = STARLINK-36170
OBJECT_ID      = 2025-298J
CENTER_NAME    = EARTH
REF_FRAME      = TEME
TIME_SYSTEM    = UTC
MEAN_ELEMENT_THEORY = SGP/SGP4

EPOCH          = 2026-01-05T14:16:56.557920
MEAN_MOTION    = 15.52561841
ECCENTRICITY   = .00034669
INCLINATION    = 69.9998
RA_OF_ASC_NODE = 182.8727
ARG_OF_PERICENTER = 273.5626
MEAN_ANOMALY   = 86.5165

EPHEMERIS_TYPE = 0
CLASSIFICATION_TYPE = U
NORAD_CAT_ID   = 67083
ELEMENT_SET_NO = 999
REV_AT_EPOCH   = 353
BSTAR          = .95008293E-3
MEAN_MOTION_DOT = .58808E-3
MEAN_MOTION_DDOT = 0

