DEAR-5                  
1 67070U 25296B   26005.60129076  .00004974  00000+0  25518-3 0  9995
2 67070  41.3576 325.4548 0020030 187.6336 172.4183 15.17077641  3578
RAISE-4                 
1 67073U 25297B   26005.66517442  .00006841  00000+0  45507-3 0  9998
2 67073  97.4870 157.5727 0011508 230.3504 129.6709 15.07411148  3397
ELECTRON KICK STAGE R/B 
1 67074U 25297C   26005.66432792  .00543851  93115-4  21152-2 0  9993
2 67074  97.4779 159.4361 0156098 182.3339 177.7214 15.70655076  3516
STARLINK-36230          
1 67075U 25298A   26005.59784234  .00089849  00000+0  14432-2 0  9999
2 67075  69.9996 182.8843 0003718 276.3906  83.6857 15.52585733  3533
STARLINK-36240          
1 67076U 25298B   26005.00001157 -.00086171  00000+0 -14110-2 0  9992
2 67076  69.9992 184.5191 0003380 273.5072 348.1226 15.52561389  4714
STARLINK-36243          
1 67077U 25298C   26005.59715688  .00149496  00000+0  23804-2 0  9996
2 67077  69.9996 182.8811 0003445 278.3136  81.7660 15.52599467  3534
STARLINK-36236          
1 67078U 25298D   26005.59682009  .00068466  00000+0  11040-2 0  9993
2 67078  69.9997 182.8800 0003551 274.6422  85.4359 15.52570500  3532
STARLINK-36159          
1 67079U 25298E   26005.58336806  .00014965  00000+0  34461-3 0  9992
2 67079  70.0001 183.1349 0003374 267.8082 186.7052 15.42698223  4801
STARLINK-36158          
1 67080U 25298F   26005.58336806 -.02097629  00000+0 -43225-1 0  9992
2 67080  69.9997 182.9163 0003433 269.9023  14.2755 15.49154333  4743
STARLINK-35864          
1 67081U 25298G   26005.58336806 -.02062061  00000+0 -47423-1 0  9999
2 67081  69.9999 182.9292 0003307 263.6298   9.7621 15.45955257  4802
STARLINK-36035          
1 67082U 25298H   26005.58336806  .00039622  00000+0  90511-3 0  9991
2 67082  70.0002 182.9504 0002790 272.0308 343.4891 15.42660942  4806
STARLINK-36170          
1 67083U 25298J   26005.59509905  .00058808  00000+0  95008-3 0  9998
2 67083  69.9998 182.8727 0003466 273.5626  86.5165 15.52561841  3531
